1 29155U 06018A   11006.09399313 -.00000250  00000-0  10000-3 0  4270
2 29155 000.3520 078.7452 0002002 347.9700 357.5718 01.00274019 16952